{
  "type": "FeatureCollection",
  "features": [
    {
      "type": "Feature",
      "properties": {
        "norad_id": 27954,
        "name": "GALAXY 13 (HORIZONS-1)",
        "group": "intelsat",
        "lat": 0.25151836765634766,
        "lon": 100.16531046417475,
        "alt_km": 35793.95416442132,
        "timestamp": "2025-12-18T10:51:25.457175+00:00",
        "meta_object_name": "GALAXY 13 (HORIZONS-1)",
        "meta_object_id": "2003-044A",
        "meta_epoch": "2025-12-17T17:44:57.132096",
        "meta_mean_motion": 1.00273776,
        "meta_eccentricity": 0.00021044,
        "meta_inclination": 0.9491,
        "meta_ra_of_asc_node": 86.4074,
        "meta_arg_of_pericenter": 177.1949,
        "meta_mean_anomaly": 299.256,
        "meta_ephemeris_type": 0,
        "meta_classification_type": "U",
        "meta_norad_cat_id": 27954,
        "meta_element_set_no": 999,
        "meta_rev_at_epoch": 4475,
        "meta_bstar": 0,
        "meta_mean_motion_dot": 1.57e-06,
        "meta_mean_motion_ddot": 0,
        "tle_line1": "1 27954U 03044A   25351.73955014  .00000157  00000+0  00000+0 0  9999",
        "tle_line2": "2 27954   0.9491  86.4074 0002104 177.1949 299.2560  1.00273776 44752"
      },
      "geometry": {
        "type": "Point",
        "coordinates": [
          100.16531046417475,
          0.25151836765634766
        ]
      }
    },
    {
      "type": "Feature",
      "properties": {
        "norad_id": 28358,
        "name": "INTELSAT 10-02",
        "group": "intelsat",
        "lat": -0.017952125796056876,
        "lon": -110.80718089201186,
        "alt_km": 35783.74403481505,
        "timestamp": "2025-12-18T10:51:25.457187+00:00",
        "meta_object_name": "INTELSAT 10-02",
        "meta_object_id": "2004-022A",
        "meta_epoch": "2025-12-17T18:27:30.557088",
        "meta_mean_motion": 1.00272675,
        "meta_eccentricity": 9.347e-05,
        "meta_inclination": 0.021,
        "meta_ra_of_asc_node": 68.0618,
        "meta_arg_of_pericenter": 239.8098,
        "meta_mean_anomaly": 54.6873,
        "meta_ephemeris_type": 0,
        "meta_classification_type": "U",
        "meta_norad_cat_id": 28358,
        "meta_element_set_no": 999,
        "meta_rev_at_epoch": 7873,
        "meta_bstar": 0,
        "meta_mean_motion_dot": 1.4e-07,
        "meta_mean_motion_ddot": 0,
        "tle_line1": "1 28358U 04022A   25351.76910367  .00000014  00000+0  00000+0 0  9992",
        "tle_line2": "2 28358   0.0210  68.0618 0000934 239.8098  54.6873  1.00272675 78733"
      },
      "geometry": {
        "type": "Point",
        "coordinates": [
          -110.80718089201186,
          -0.017952125796056876
        ]
      }
    },
    {
      "type": "Feature",
      "properties": {
        "norad_id": 28626,
        "name": "XM-3 (RHYTHM)",
        "group": "intelsat",
        "lat": -0.18542762060577167,
        "lon": -22.684251395646072,
        "alt_km": 36153.586247181556,
        "timestamp": "2025-12-18T10:51:25.457200+00:00",
        "meta_object_name": "XM-3 (RHYTHM)",
        "meta_object_id": "2005-008A",
        "meta_epoch": "2025-12-17T20:36:08.748576",
        "meta_mean_motion": 0.98950486,
        "meta_eccentricity": 0.00018147,
        "meta_inclination": 0.1876,
        "meta_ra_of_asc_node": 81.881,
        "meta_arg_of_pericenter": 277.8195,
        "meta_mean_anomaly": 126.0552,
        "meta_ephemeris_type": 0,
        "meta_classification_type": "U",
        "meta_norad_cat_id": 28626,
        "meta_element_set_no": 999,
        "meta_rev_at_epoch": 4080,
        "meta_bstar": 0,
        "meta_mean_motion_dot": 1.7e-07,
        "meta_mean_motion_ddot": 0,
        "tle_line1": "1 28626U 05008A   25351.85843459  .00000017  00000+0  00000+0 0  9995",
        "tle_line2": "2 28626   0.1876  81.8810 0001814 277.8195 126.0552  0.98950486 40809"
      },
      "geometry": {
        "type": "Point",
        "coordinates": [
          -22.684251395646072,
          -0.18542762060577167
        ]
      }
    },
    {
      "type": "Feature",
      "properties": {
        "norad_id": 28659,
        "name": "DIRECTV 8",
        "group": "intelsat",
        "lat": 0.019117148944156354,
        "lon": 131.11002269950183,
        "alt_km": 35795.598726457305,
        "timestamp": "2025-12-18T10:51:25.457212+00:00",
        "meta_object_name": "DIRECTV 8",
        "meta_object_id": "2005-019A",
        "meta_epoch": "2025-12-17T17:53:33.808416",
        "meta_mean_motion": 1.00272959,
        "meta_eccentricity": 0.00028574,
        "meta_inclination": 0.0186,
        "meta_ra_of_asc_node": 331.2522,
        "meta_arg_of_pericenter": 304.7129,
        "meta_mean_anomaly": 320.0105,
        "meta_ephemeris_type": 0,
        "meta_classification_type": "U",
        "meta_norad_cat_id": 28659,
        "meta_element_set_no": 999,
        "meta_rev_at_epoch": 7525,
        "meta_bstar": 0,
        "meta_mean_motion_dot": 2.6e-07,
        "meta_mean_motion_ddot": 0,
        "tle_line1": "1 28659U 05019A   25351.74553019  .00000026  00000+0  00000+0 0  9991",
        "tle_line2": "2 28659   0.0186 331.2522 0002857 304.7129 320.0105  1.00272959 75258"
      },
      "geometry": {
        "type": "Point",
        "coordinates": [
          131.11002269950183,
          0.019117148944156354
        ]
      }
    },
    {
      "type": "Feature",
      "properties": {
        "norad_id": 28702,
        "name": "GALAXY 28 (G-28)",
        "group": "intelsat",
        "lat": 2.7975915689495015,
        "lon": 161.418836740402,
        "alt_km": 35790.469239223625,
        "timestamp": "2025-12-18T10:51:25.457225+00:00",
        "meta_object_name": "GALAXY 28 (G-28)",
        "meta_object_id": "2005-022A",
        "meta_epoch": "2025-12-17T14:37:00.129792",
        "meta_mean_motion": 1.00270794,
        "meta_eccentricity": 0.00029092,
        "meta_inclination": 2.8318,
        "meta_ra_of_asc_node": 81.2261,
        "meta_arg_of_pericenter": 191.3328,
        "meta_mean_anomaly": 304.4759,
        "meta_ephemeris_type": 0,
        "meta_classification_type": "U",
        "meta_norad_cat_id": 28702,
        "meta_element_set_no": 999,
        "meta_rev_at_epoch": 5015,
        "meta_bstar": 0,
        "meta_mean_motion_dot": -1.65e-06,
        "meta_mean_motion_ddot": 0,
        "tle_line1": "1 28702U 05022A   25351.60902928 -.00000165  00000+0  00000+0 0  9991",
        "tle_line2": "2 28702   2.8318  81.2261 0002909 191.3328 304.4759  1.00270794 50153"
      },
      "geometry": {
        "type": "Point",
        "coordinates": [
          161.418836740402,
          2.7975915689495015
        ]
      }
    },
    {
      "type": "Feature",
      "properties": {
        "norad_id": 29236,
        "name": "GALAXY 16 (G-16)",
        "group": "intelsat",
        "lat": -0.005084884289750762,
        "lon": 151.131086372971,
        "alt_km": 35790.155601420935,
        "timestamp": "2025-12-18T10:51:25.457237+00:00",
        "meta_object_name": "GALAXY 16 (G-16)",
        "meta_object_id": "2006-023A",
        "meta_epoch": "2025-12-17T21:24:56.576736",
        "meta_mean_motion": 1.00271462,
        "meta_eccentricity": 0.00024817,
        "meta_inclination": 0.0343,
        "meta_ra_of_asc_node": 214.225,
        "meta_arg_of_pericenter": 49.0745,
        "meta_mean_anomaly": 45.698,
        "meta_ephemeris_type": 0,
        "meta_classification_type": "U",
        "meta_norad_cat_id": 29236,
        "meta_element_set_no": 999,
        "meta_rev_at_epoch": 7115,
        "meta_bstar": 0,
        "meta_mean_motion_dot": -1.02e-06,
        "meta_mean_motion_ddot": 0,
        "tle_line1": "1 29236U 06023A   25351.89232149 -.00000102  00000+0  00000+0 0  9999",
        "tle_line2": "2 29236   0.0343 214.2250 0002481  49.0745  45.6980  1.00271462 71153"
      },
      "geometry": {
        "type": "Point",
        "coordinates": [
          151.131086372971,
          -0.005084884289750762
        ]
      }
    },
    {
      "type": "Feature",
      "properties": {
        "norad_id": 29494,
        "name": "DIRECTV 9S",
        "group": "intelsat",
        "lat": 1.7918510610617024,
        "lon": 148.9120844608367,
        "alt_km": 35792.3597463816,
        "timestamp": "2025-12-18T10:51:25.457250+00:00",
        "meta_object_name": "DIRECTV 9S",
        "meta_object_id": "2006-043A",
        "meta_epoch": "2025-12-17T21:24:19.136160",
        "meta_mean_motion": 1.0027187,
        "meta_eccentricity": 0.00028192,
        "meta_inclination": 1.9529,
        "meta_ra_of_asc_node": 83.1587,
        "meta_arg_of_pericenter": 188.9637,
        "meta_mean_anomaly": 34.5087,
        "meta_ephemeris_type": 0,
        "meta_classification_type": "U",
        "meta_norad_cat_id": 29494,
        "meta_element_set_no": 999,
        "meta_rev_at_epoch": 4956,
        "meta_bstar": 0,
        "meta_mean_motion_dot": -9e-07,
        "meta_mean_motion_ddot": 0,
        "tle_line1": "1 29494U 06043A   25351.89188815 -.00000090  00000+0  00000+0 0  9993",
        "tle_line2": "2 29494   1.9529  83.1587 0002819 188.9637  34.5087  1.00271870 49567"
      },
      "geometry": {
        "type": "Point",
        "coordinates": [
          148.9120844608367,
          1.7918510610617024
        ]
      }
    }
  ]
}